{
    "links": {
        "self": "http://www.neowsapp.com/rest/v1/neo/3802035?api_key=iIulBulltgU6a56xZRHN4H3l9WmuAYTsLGpBGhQ2"
    },
    "id": "3802035",
    "neo_reference_id": "3802035",
    "name": "(2018 FW2)",
    "designation": "2018 FW2",
    "nasa_jpl_url": "http://ssd.jpl.nasa.gov/sbdb.cgi?sstr=3802035",
    "absolute_magnitude_h": 24.9,
    "estimated_diameter": {
        "kilometers": {
            "estimated_diameter_min": 0.0278326768,
            "estimated_diameter_max": 0.0622357573
        },
        "meters": {
            "estimated_diameter_min": 27.8326768072,
            "estimated_diameter_max": 62.2357573367
        },
        "miles": {
            "estimated_diameter_min": 0.0172944182,
            "estimated_diameter_max": 0.0386714948
        },
        "feet": {
            "estimated_diameter_min": 91.3145593761,
            "estimated_diameter_max": 204.1855621004
        }
    },
    "is_potentially_hazardous_asteroid": false,
    "close_approach_data": [
        {
            "close_approach_date": "2018-04-06",
            "close_approach_date_full": "2018-Apr-06 23:00",
            "epoch_date_close_approach": 1523055600000,
            "relative_velocity": {
                "kilometers_per_second": "5.0039970353",
                "kilometers_per_hour": "18014.3893271446",
                "miles_per_hour": "11193.4409683027"
            },
            "miss_distance": {
                "astronomical": "0.1521543854",
                "lunar": "59.1880559206",
                "kilometers": "22761971.966999098",
                "miles": "14143633.5312916324"
            },
            "orbiting_body": "Earth"
        }
    ],
    "orbital_data": {
        "orbit_id": "5",
        "orbit_determination_date": "2018-04-27 06:51:58",
        "first_observation_date": "2018-03-18",
        "last_observation_date": "2018-04-23",
        "data_arc_in_days": 36,
        "observations_used": 32,
        "orbit_uncertainty": "7",
        "minimum_orbit_intersection": ".152013",
        "jupiter_tisserand_invariant": "3.176",
        "epoch_osculation": "2459000.5",
        "eccentricity": ".5563640810783561",
        "semi_major_axis": "2.59889081500013",
        "inclination": "1.909316098446926",
        "ascending_node_longitude": "188.9934980966032",
        "orbital_period": "1530.313742195694",
        "perihelion_distance": "1.152961314889603",
        "perihelion_argument": "6.496060699136634",
        "aphelion_distance": "4.044820315110657",
        "perihelion_time": "2459743.443243352471",
        "mean_anomaly": "185.2256643640025",
        "mean_motion": ".2352458780664624",
        "equinox": "J2000",
        "orbit_class": {
            "orbit_class_type": "AMO",
            "orbit_class_description": "Near-Earth asteroid orbits similar to that of 1221 Amor",
            "orbit_class_range": "1.017 AU < q (perihelion) < 1.3 AU"
        }
    },
    "is_sentry_object": false
}